NORAD_CAT_ID,OBJECT_NAME,OBJECT_TYPE,EPOCH,MEAN_MOTION,ECCENTRICITY,INCLINATION,RA_OF_ASC_NODE,ARG_OF_PERICENTER,MEAN_ANOMALY,BSTAR,MEAN_MOTION_DOT,MEAN_MOTION_DDOT,TLE_LINE0,TLE_LINE1,TLE_LINE2,SEMIMAJOR_AXIS,PERIOD,APOGEE,PERIGEE,DECAYED
52619.0,STARLINK-3741,PAYLOAD,2023-12-01 09:58:34,15.08839844,0.0001702,53.2198,31.8682,91.3952,268.7235,2.5014e-05,1.1e-06,0.0,0 STARLINK-3741,1 52619U 22052X   23335.41567541  .00000110  00000-0  25014-4 0  9991,2 52619  53.2198  31.8682 0001702  91.3952 268.7235 15.08839844 86175,6917.881,95.438,540.923,538.568,0.0
52619.0,STARLINK-3741,PAYLOAD,2023-12-01 11:33:57,15.08842896,0.0001691,53.2198,31.5693,82.9953,277.1231,2.226e-05,6.6e-07,0.0,0 STARLINK-3741,1 52619U 22052X   23335.48191337  .00000066  00000-0  22260-4 0  9994,2 52619  53.2198  31.5693 0001691  82.9953 277.1231 15.08842896 85808,6917.872,95.437,540.906,538.567,0.0
52619.0,STARLINK-3741,PAYLOAD,2023-12-02 11:24:41,15.08884057,0.0001859,53.2189,27.11,67.2507,292.8682,0.00060297,9.333e-05,0.0,0 STARLINK-3741,1 52619U 22052X   23336.47548466  .00009333  00000-0  60297-3 0  9990,2 52619  53.2189  27.1100 0001859  67.2507 292.8682 15.08884057 86337,6917.746,95.435,540.897,538.325,0.0
52619.0,STARLINK-3741,PAYLOAD,2023-12-03 11:15:31,15.08822445,0.0001414,53.2183,22.6565,96.8788,263.2365,-0.00025917,-4.408e-05,0.0,0 STARLINK-3741,1 52619U 22052X   23337.46911711 -.00004408  00000-0 -25917-3 0  9997,2 52619  53.2183  22.6565 0001414  96.8788 263.2365 15.08822445 86481,6917.934,95.439,540.777,538.821,0.0
52619.0,STARLINK-3741,PAYLOAD,2023-12-03 12:50:54,15.08820988,0.0001403,53.2182,22.3523,100.0059,260.1091,-0.00028297,-4.786e-05,0.0,0 STARLINK-3741,1 52619U 22052X   23337.53535754 -.00004786  00000-0 -28297-3 0  9997,2 52619  53.2182  22.3523 0001403 100.0059 260.1091 15.08820988 86110,6917.939,95.439,540.774,538.833,0.0
52619.0,STARLINK-3741,PAYLOAD,2023-12-04 09:30:55,15.08841253,0.0001673,53.2175,18.4854,62.7891,297.3271,-0.00012023,-2.201e-05,0.0,0 STARLINK-3741,1 52619U 22052X   23338.39647524 -.00002201  00000-0 -12023-3 0  9991,2 52619  53.2175  18.4854 0001673  62.7891 297.3271 15.08841253 86628,6917.877,95.437,540.899,538.584,0.0
52619.0,STARLINK-3741,PAYLOAD,2023-12-05 09:21:42,15.08858263,0.0001796,53.2173,14.0257,61.2663,298.851,0.00077673,0.00012101,0.0,0 STARLINK-3741,1 52619U 22052X   23339.39007732  .00012101  00000-0  77673-3 0  9993,2 52619  53.2173  14.0257 0001796  61.2663 298.8510 15.08858263 86779,6917.825,95.436,540.932,538.447,0.0
52619.0,STARLINK-3741,PAYLOAD,2023-12-06 02:50:56,15.08855167,0.0001987,53.2182,10.7541,63.9449,296.1748,0.00024405,3.6e-05,0.0,0 STARLINK-3741,1 52619U 22052X   23340.11871395  .00003600  00000-0  24405-3 0  9998,2 52619  53.2182  10.7541 0001987  63.9449 296.1748 15.08855167 86887,6917.834,95.437,541.074,538.324,0.0
52619.0,STARLINK-3741,PAYLOAD,2023-12-06 09:12:29,15.08849782,0.0001806,53.2191,9.5667,86.709,273.4109,6.1438e-05,6.9e-06,0.0,0 STARLINK-3741,1 52619U 22052X   23340.38367176  .00000690  00000-0  61438-4 0  9998,2 52619  53.2191   9.5667 0001806  86.7090 273.4109 15.08849782 86545,6917.85,95.437,540.965,538.466,0.0
52619.0,STARLINK-3741,PAYLOAD,2023-12-07 10:38:40,15.08840706,0.0001782,53.2193,4.8059,77.552,282.5671,-6.2489e-05,-1.283e-05,0.0,0 STARLINK-3741,1 52619U 22052X   23341.44352158 -.00001283  00000-0 -62489-4 0  9998,2 52619  53.2193   4.8059 0001782  77.5520 282.5671 15.08840706 87081,6917.878,95.438,540.976,538.51,0.0
52619.0,STARLINK-3741,PAYLOAD,2023-12-07 12:14:03,15.08840856,0.0001792,53.2194,4.5083,80.2154,279.904,-6.566e-05,-1.333e-05,0.0,0 STARLINK-3741,1 52619U 22052X   23341.50976121 -.00001333  00000-0 -65660-4 0  9997,2 52619  53.2194   4.5083 0001792  80.2154 279.9040 15.08840856 86716,6917.878,95.438,540.982,538.503,0.0
52619.0,STARLINK-3741,PAYLOAD,2023-12-08 08:54:03,15.08841768,0.0001828,53.219,0.6439,76.812,283.3076,6.8386e-05,8e-06,0.0,0 STARLINK-3741,1 52619U 22052X   23342.37087809  .00000800  00000-0  68386-4 0  9993,2 52619  53.2190   0.6439 0001828  76.8120 283.3076 15.08841768 86843,6917.875,95.437,541.005,538.475,0.0
52619.0,STARLINK-3741,PAYLOAD,2023-12-09 08:44:50,15.08842422,0.0001761,53.2186,356.1838,77.6205,282.4984,0.00011886,1.604e-05,0.0,0 STARLINK-3741,1 52619U 22052X   23343.36447801  .00001604  00000-0  11886-3 0  9990,2 52619  53.2186 356.1838 0001761  77.6205 282.4984 15.08842422 87374,6917.873,95.437,540.956,538.52,0.0
52619.0,STARLINK-3741,PAYLOAD,2023-12-10 00:38:42,15.08837161,0.000202,53.219,353.2123,71.3387,288.7824,5.7605e-05,6.29e-06,0.0,0 STARLINK-3741,1 52619U 22052X   23344.02688415  .00000629  00000-0  57605-4 0  9998,2 52619  53.2190 353.2123 0002020  71.3387 288.7824 15.08837161 87472,6917.889,95.438,541.151,538.357,0.0
52619.0,STARLINK-3741,PAYLOAD,2023-12-11 03:40:15,15.08844683,0.0001808,53.2182,348.1604,82.1289,277.9908,5.2241e-05,5.43e-06,0.0,0 STARLINK-3741,1 52619U 22052X   23345.15295622  .00000543  00000-0  52241-4 0  9993,2 52619  53.2182 348.1604 0001808  82.1289 277.9908 15.08844683 87643,6917.866,95.437,540.982,538.48,0.0
52619.0,STARLINK-3741,PAYLOAD,2023-12-11 06:51:01,15.08847623,0.0001896,53.2184,347.5652,78.7287,281.3918,8.1256e-05,1.006e-05,0.0,0 STARLINK-3741,1 52619U 22052X   23345.28543386  .00001006  00000-0  81256-4 0  9993,2 52619  53.2184 347.5652 0001896  78.7287 281.3918 15.08847623 87284,6917.857,95.437,541.034,538.41,0.0
52619.0,STARLINK-3741,PAYLOAD,2023-12-12 03:31:02,15.08840104,0.0001753,53.2196,343.6952,107.0354,253.0831,1.2219e-05,-9.4e-07,0.0,0 STARLINK-3741,1 52619U 22052X   23346.14655793 -.00000094  00000-0  12219-4 0  9995,2 52619  53.2196 343.6952 0001753 107.0354 253.0831 15.08840104 87793,6917.88,95.438,540.958,538.532,0.0
52619.0,STARLINK-3741,PAYLOAD,2023-12-12 06:41:48,15.08838578,0.0001873,53.218,343.0976,111.6094,248.5098,4.4879e-06,-2.17e-06,0.0,0 STARLINK-3741,1 52619U 22052X   23346.27903914 -.00000217  00000-0  44879-5 0  9995,2 52619  53.2180 343.0976 0001873 111.6094 248.5098 15.08838578 87438,6917.885,95.438,541.045,538.454,0.0
52619.0,STARLINK-3741,PAYLOAD,2023-12-13 03:21:50,15.08839288,0.0001577,53.2181,339.2328,99.1407,260.9764,-6.1441e-05,-1.266e-05,0.0,0 STARLINK-3741,1 52619U 22052X   23347.14016335 -.00001266  00000-0 -61441-4 0  9993,2 52619  53.2181 339.2328 0001577  99.1407 260.9764 15.08839288 87949,6917.883,95.438,540.839,538.657,0.0
52619.0,STARLINK-3741,PAYLOAD,2023-12-13 06:32:36,15.08839639,0.0001638,53.2185,338.6384,102.401,257.7165,-5.3335e-05,-1.137e-05,0.0,0 STARLINK-3741,1 52619U 22052X   23347.27264254 -.00001137  00000-0 -53335-4 0  9992,2 52619  53.2185 338.6384 0001638 102.4010 257.7165 15.08839639 87583,6917.881,95.438,540.88,538.613,0.0
52619.0,STARLINK-3741,PAYLOAD,2023-12-14 06:23:23,15.08835332,0.0001702,53.219,334.18,104.2705,255.8476,0.0001106,1.472e-05,0.0,0 STARLINK-3741,1 52619U 22052X   23348.26624475  .00001472  00000-0  11060-3 0  9995,2 52619  53.2190 334.1800 0001702 104.2705 255.8476 15.08835332 88116,6917.895,95.438,540.937,538.582,0.0
52619.0,STARLINK-3741,PAYLOAD,2023-12-15 06:14:10,15.08842301,0.0001652,53.2187,329.7176,95.1639,264.9542,0.00013469,1.856e-05,0.0,0 STARLINK-3741,1 52619U 22052X   23349.25984334  .00001856  00000-0  13469-3 0  9999,2 52619  53.2187 329.7176 0001652  95.1639 264.9542 15.08842301 87888,6917.873,95.437,540.881,538.596,0.0
52619.0,STARLINK-3741,PAYLOAD,2023-12-16 02:54:12,15.08807873,0.0001989,53.2194,325.8552,75.055,285.0663,0.00037341,5.655e-05,0.0,0 STARLINK-3741,1 52619U 22052X   23350.12098080  .00005655  00000-0  37341-3 0  9997,2 52619  53.2194 325.8552 0001989  75.0550 285.0663 15.08807873 88393,6917.979,95.44,541.22,538.468,0.0
52619.0,STARLINK-3741,PAYLOAD,2023-12-16 06:04:59,15.08800121,0.0002081,53.2187,325.2579,64.7432,295.3776,0.00048803,7.479e-05,0.0,0 STARLINK-3741,1 52619U 22052X   23350.25346484  .00007479  00000-0  48803-3 0  9996,2 52619  53.2187 325.2579 0002081  64.7432 295.3776 15.08800121 88035,6918.002,95.44,541.307,538.428,0.0
52619.0,STARLINK-3741,PAYLOAD,2023-12-17 02:44:59,15.08839195,0.0001994,53.2184,321.395,62.1638,297.9556,4.9517e-05,5e-06,0.0,0 STARLINK-3741,1 52619U 22052X   23351.11457524  .00000500  00000-0  49517-4 0  9992,2 52619  53.2184 321.3950 0001994  62.1638 297.9556 15.08839195 88547,6917.883,95.438,541.127,538.368,0.0
52619.0,STARLINK-3741,PAYLOAD,2023-12-17 05:55:45,15.08809499,0.0001915,53.2189,320.799,77.2292,282.8914,0.00053996,8.309e-05,0.0,0 STARLINK-3741,1 52619U 22052X   23351.24705888  .00008309  00000-0  53996-3 0  9995,2 52619  53.2189 320.7990 0001915  77.2292 282.8914 15.08809499 88562,6917.974,95.439,541.163,538.514,0.0
52619.0,STARLINK-3741,PAYLOAD,2023-12-18 04:11:07,15.0885836,0.0001805,53.2182,316.6376,68.4167,291.7017,0.00027602,4.11e-05,0.0,0 STARLINK-3741,1 52619U 22052X   23352.17439597  .00004110  00000-0  27602-3 0  9990,2 52619  53.2182 316.6376 0001805  68.4167 291.7017 15.08858360 88708,6917.824,95.436,540.938,538.441,0.0
52619.0,STARLINK-3741,PAYLOAD,2023-12-19 04:01:56,15.08833195,0.0001404,53.2177,312.1726,112.2517,247.8624,-0.00015533,-2.759e-05,0.0,0 STARLINK-3741,1 52619U 22052X   23353.16801332 -.00002759  00000-0 -15533-3 0  9999,2 52619  53.2177 312.1726 0001404 112.2517 247.8624 15.08833195 88855,6917.901,95.438,540.737,538.795,0.0
52619.0,STARLINK-3741,PAYLOAD,2023-12-20 03:52:42,15.08857469,0.0001372,53.2179,307.7101,100.4013,259.7133,0.00013257,1.824e-05,0.0,0 STARLINK-3741,1 52619U 22052X   23354.16160123  .00001824  00000-0  13257-3 0  9997,2 52619  53.2179 307.7101 0001372 100.4013 259.7133 15.08857469 89003,6917.827,95.436,540.641,538.743,0.0
52619.0,STARLINK-3741,PAYLOAD,2023-12-21 02:08:06,15.08846278,0.0001412,53.2174,303.5488,106.2964,253.8184,0.00031338,4.704e-05,0.0,0 STARLINK-3741,1 52619U 22052X   23355.08896898  .00004704  00000-0  31338-3 0  9994,2 52619  53.2174 303.5488 0001412 106.2964 253.8184 15.08846278 89146,6917.861,95.437,540.703,538.749,0.0
